start=new Date('2022-07-13T00:00:00.000Z').valueOf();
sats=[{"REV_AT_EPOCH":"7551","DECAY_DATE":null,"APOAPSIS":"548.166","GP_ID":"207998168","INCLINATION":"53.0529","CENTER_NAME":"EARTH","PERIAPSIS":"546.146","TLE_LINE1":"1 47799U 21018N   22193.77080327  .00006549  00000-0  45789-3 0  9999","OBJECT_TYPE":"PAYLOAD","EPHEMERIS_TYPE":"0","EPOCH":"2022-07-12T18:29:57.402528","ELEMENT_SET_NO":"999","MEAN_MOTION":"15.06418803","OBJECT_NAME":"STARLINK-2380","FILE":"3512432","MEAN_ELEMENT_THEORY":"SGP4","MEAN_ANOMALY":"281.8812","COUNTRY_CODE":"US","ARG_OF_PERICENTER":"78.2341","SITE":"AFETR","PERIOD":"95.591","MEAN_MOTION_DDOT":"0.0000000000000","REF_FRAME":"TEME","ECCENTRICITY":"0.00014580","MEAN_MOTION_DOT":"0.00006549","RA_OF_ASC_NODE":"108.7905","LAUNCH_DATE":"2021-03-11","TLE_LINE2":"2 47799  53.0529 108.7905 0001458  78.2341 281.8812 15.06418803 75519","CLASSIFICATION_TYPE":"U","SEMIMAJOR_AXIS":"6925.291","OBJECT_ID":"2021-018N","NORAD_CAT_ID":"47799","RCS_SIZE":"LARGE","TIME_SYSTEM":"UTC","BSTAR":"0.00045789000000"},{"RCS_SIZE":"LARGE","BSTAR":"0.00027196000000","TIME_SYSTEM":"UTC","OBJECT_ID":"2021-018P","NORAD_CAT_ID":"47800","RA_OF_ASC_NODE":"108.4017","ECCENTRICITY":"0.00015440","MEAN_MOTION_DOT":"0.00003773","TLE_LINE2":"2 47800  53.0543 108.4017 0001544  58.3753 301.7386 15.06411997 75538","CLASSIFICATION_TYPE":"U","SEMIMAJOR_AXIS":"6925.312","LAUNCH_DATE":"2021-03-11","ARG_OF_PERICENTER":"58.3753","SITE":"AFETR","PERIOD":"95.591","MEAN_ANOMALY":"301.7386","COUNTRY_CODE":"US","REF_FRAME":"TEME","MEAN_MOTION_DDOT":"0.0000000000000","OBJECT_NAME":"STARLINK-2381","FILE":"3512432","MEAN_ELEMENT_THEORY":"SGP4","TLE_LINE1":"1 47800U 21018P   22193.85926325  .00003773  00000-0  27196-3 0  9996","EPHEMERIS_TYPE":"0","OBJECT_TYPE":"PAYLOAD","EPOCH":"2022-07-12T20:37:20.344800","PERIAPSIS":"546.108","MEAN_MOTION":"15.06411997","ELEMENT_SET_NO":"999","INCLINATION":"53.0543","CENTER_NAME":"EARTH","APOAPSIS":"548.246","REV_AT_EPOCH":"7553","DECAY_DATE":null,"GP_ID":"207998418"},{"DECAY_DATE":null,"REV_AT_EPOCH":"7516","APOAPSIS":"548.386","GP_ID":"208006093","CENTER_NAME":"EARTH","INCLINATION":"53.0560","PERIAPSIS":"546.002","EPOCH":"2022-07-13T03:49:15.834720","EPHEMERIS_TYPE":"0","TLE_LINE1":"1 47801U 21018Q   22194.15921105  .00000206  00000-0  32754-4 0  9997","OBJECT_TYPE":"PAYLOAD","ELEMENT_SET_NO":"999","MEAN_MOTION":"15.06406483","MEAN_ELEMENT_THEORY":"SGP4","FILE":"3512590","OBJECT_NAME":"STARLINK-2382","COUNTRY_CODE":"US","MEAN_ANOMALY":"279.6563","PERIOD":"95.592","ARG_OF_PERICENTER":"80.4621","SITE":"AFETR","REF_FRAME":"TEME","MEAN_MOTION_DDOT":"0.0000000000000","MEAN_MOTION_DOT":"0.00000206","ECCENTRICITY":"0.00017210","RA_OF_ASC_NODE":"112.1235","LAUNCH_DATE":"2021-03-11","CLASSIFICATION_TYPE":"U","SEMIMAJOR_AXIS":"6925.329","TLE_LINE2":"2 47801  53.0560 112.1235 0001721  80.4621 279.6563 15.06406483 75162","NORAD_CAT_ID":"47801","OBJECT_ID":"2021-018Q","RCS_SIZE":"LARGE","TIME_SYSTEM":"UTC","BSTAR":"0.00003275400000"},{"RCS_SIZE":"LARGE","TIME_SYSTEM":"UTC","BSTAR":"0.00011542000000","NORAD_CAT_ID":"47802","OBJECT_ID":"2021-018R","MEAN_MOTION_DOT":"0.00001438","ECCENTRICITY":"0.00015120","RA_OF_ASC_NODE":"133.6219","LAUNCH_DATE":"2021-03-11","SEMIMAJOR_AXIS":"6925.348","CLASSIFICATION_TYPE":"U","TLE_LINE2":"2 47802  53.0549 133.6219 0001512  71.4389 288.6764 15.06400115 75180","COUNTRY_CODE":"US","MEAN_ANOMALY":"288.6764","PERIOD":"95.592","SITE":"AFETR","ARG_OF_PERICENTER":"71.4389","MEAN_MOTION_DDOT":"0.0000000000000","REF_FRAME":"TEME","MEAN_ELEMENT_THEORY":"SGP4","OBJECT_NAME":"STARLINK-2383","FILE":"3512432","PERIAPSIS":"546.166","EPOCH":"2022-07-12T19:22:21.923616","TLE_LINE1":"1 47802U 21018R   22193.80719819  .00001438  00000-0  11542-3 0  9995","EPHEMERIS_TYPE":"0","OBJECT_TYPE":"PAYLOAD","ELEMENT_SET_NO":"999","MEAN_MOTION":"15.06400115","INCLINATION":"53.0549","CENTER_NAME":"EARTH","DECAY_DATE":null,"REV_AT_EPOCH":"7518","APOAPSIS":"548.260","GP_ID":"207999404"},{"INCLINATION":"53.0555","CENTER_NAME":"EARTH","GP_ID":"208006225","APOAPSIS":"548.523","DECAY_DATE":null,"REV_AT_EPOCH":"7523","MEAN_ELEMENT_THEORY":"SGP4","OBJECT_NAME":"STARLINK-2384","FILE":"3512598","MEAN_MOTION":"15.06410999","ELEMENT_SET_NO":"999","EPOCH":"2022-07-13T03:15:23.973696","OBJECT_TYPE":"PAYLOAD","TLE_LINE1":"1 47803U 21018S   22194.13569414  .00001544  00000-0  12248-3 0  9999","EPHEMERIS_TYPE":"0","PERIAPSIS":"545.837","CLASSIFICATION_TYPE":"U","SEMIMAJOR_AXIS":"6925.315","TLE_LINE2":"2 47803  53.0555 107.1643 0001939  76.4299 283.6906 15.06410999 75233","LAUNCH_DATE":"2021-03-11","RA_OF_ASC_NODE":"107.1643","MEAN_MOTION_DOT":"0.00001544","ECCENTRICITY":"0.00019390","MEAN_MOTION_DDOT":"0.0000000000000","REF_FRAME":"TEME","PERIOD":"95.591","SITE":"AFETR","ARG_OF_PERICENTER":"76.4299","COUNTRY_CODE":"US","MEAN_ANOMALY":"283.6906","BSTAR":"0.00012248000000","TIME_SYSTEM":"UTC","RCS_SIZE":"LARGE","NORAD_CAT_ID":"47803","OBJECT_ID":"2021-018S"},{"SITE":"AFETR","ARG_OF_PERICENTER":"72.9603","PERIOD":"95.590","MEAN_ANOMALY":"287.1549","COUNTRY_CODE":"US","REF_FRAME":"TEME","MEAN_MOTION_DDOT":"0.0000000000000","RA_OF_ASC_NODE":"107.0972","ECCENTRICITY":"0.00014920","MEAN_MOTION_DOT":"0.00010324","TLE_LINE2":"2 47804  53.0541 107.0972 0001492  72.9603 287.1549 15.06426276 75234","CLASSIFICATION_TYPE":"U","SEMIMAJOR_AXIS":"6925.268","LAUNCH_DATE":"2021-03-11","OBJECT_ID":"2021-018T","NORAD_CAT_ID":"47804","RCS_SIZE":"LARGE","BSTAR":"0.00071047000000","TIME_SYSTEM":"UTC","APOAPSIS":"548.166","REV_AT_EPOCH":"7523","DECAY_DATE":null,"GP_ID":"208002958","CENTER_NAME":"EARTH","INCLINATION":"53.0541","TLE_LINE1":"1 47804U 21018T   22194.15044766  .00010324  00000-0  71047-3 0  9998","EPHEMERIS_TYPE":"0","OBJECT_TYPE":"PAYLOAD","EPOCH":"2022-07-13T03:36:38.677824","PERIAPSIS":"546.100","MEAN_MOTION":"15.06426276","ELEMENT_SET_NO":"999","FILE":"3512459","OBJECT_NAME":"STARLINK-2385","MEAN_ELEMENT_THEORY":"SGP4"},{"RA_OF_ASC_NODE":"108.0795","MEAN_MOTION_DOT":"0.00015346","ECCENTRICITY":"0.00031660","CLASSIFICATION_TYPE":"U","SEMIMAJOR_AXIS":"6925.166","TLE_LINE2":"2 47805  53.0558 108.0795 0003166 128.4010 231.7263 15.06459523 75202","LAUNCH_DATE":"2021-03-11","PERIOD":"95.588","SITE":"AFETR","ARG_OF_PERICENTER":"128.4010","COUNTRY_CODE":"US","MEAN_ANOMALY":"231.7263","MEAN_MOTION_DDOT":"0.0000000000000","REF_FRAME":"TEME","RCS_SIZE":"LARGE","BSTAR":"0.00104520000000","TIME_SYSTEM":"UTC","NORAD_CAT_ID":"47805","OBJECT_ID":"2021-018U","INCLINATION":"53.0558","CENTER_NAME":"EARTH","APOAPSIS":"549.224","DECAY_DATE":null,"REV_AT_EPOCH":"7520","GP_ID":"208004129","MEAN_ELEMENT_THEORY":"SGP4","OBJECT_NAME":"STARLINK-2386","FILE":"3512513","EPOCH":"2022-07-12T23:37:48.977760","OBJECT_TYPE":"PAYLOAD","TLE_LINE1":"1 47805U 21018U   22193.98459465  .00015346  00000-0  10452-2 0  9996","EPHEMERIS_TYPE":"0","PERIAPSIS":"544.839","MEAN_MOTION":"15.06459523","ELEMENT_SET_NO":"999"},{"NORAD_CAT_ID":"47806","OBJECT_ID":"2021-018V","TIME_SYSTEM":"UTC","BSTAR":"0.00068699000000","RCS_SIZE":"LARGE","MEAN_MOTION_DDOT":"0.0000000000000","REF_FRAME":"TEME","COUNTRY_CODE":"US","MEAN_ANOMALY":"306.3558","PERIOD":"95.590","ARG_OF_PERICENTER":"53.7546","SITE":"AFETR","LAUNCH_DATE":"2021-03-11","CLASSIFICATION_TYPE":"U","SEMIMAJOR_AXIS":"6925.252","TLE_LINE2":"2 47806  53.0539 121.9319 0001249  53.7546 306.3558 15.06431442 75039","MEAN_MOTION_DOT":"0.00009975","ECCENTRICITY":"0.00012490","RA_OF_ASC_NODE":"121.9319","ELEMENT_SET_NO":"999","MEAN_MOTION":"15.06431442","PERIAPSIS":"546.252","EPOCH":"2022-07-13T04:30:22.755168","TLE_LINE1":"1 47806U 21018V   22194.18776337  .00009975  00000-0  68699-3 0  9998","OBJECT_TYPE":"PAYLOAD","EPHEMERIS_TYPE":"0","MEAN_ELEMENT_THEORY":"SGP4","FILE":"3512513","OBJECT_NAME":"STARLINK-2387","GP_ID":"208004130","DECAY_DATE":null,"REV_AT_EPOCH":"7503","APOAPSIS":"547.982","INCLINATION":"53.0539","CENTER_NAME":"EARTH"},{"OBJECT_NAME":"STARLINK-2388","FILE":"3512432","MEAN_ELEMENT_THEORY":"SGP4","ELEMENT_SET_NO":"999","MEAN_MOTION":"15.06406486","PERIAPSIS":"545.997","TLE_LINE1":"1 47807U 21018W   22193.77909896  .00002526  00000-0  18837-3 0  9995","EPHEMERIS_TYPE":"0","OBJECT_TYPE":"PAYLOAD","EPOCH":"2022-07-12T18:41:54.150144","INCLINATION":"53.0553","CENTER_NAME":"EARTH","GP_ID":"207998169","REV_AT_EPOCH":"7565","DECAY_DATE":null,"APOAPSIS":"548.390","TIME_SYSTEM":"UTC","BSTAR":"0.00018837000000","RCS_SIZE":"LARGE","OBJECT_ID":"2021-018W","NORAD_CAT_ID":"47807","LAUNCH_DATE":"2021-03-11","TLE_LINE2":"2 47807  53.0553  98.7640 0001728  69.6545 290.4630 15.06406486 75653","CLASSIFICATION_TYPE":"U","SEMIMAJOR_AXIS":"6925.329","ECCENTRICITY":"0.00017280","MEAN_MOTION_DOT":"0.00002526","RA_OF_ASC_NODE":"98.7640","MEAN_MOTION_DDOT":"0.0000000000000","REF_FRAME":"TEME","MEAN_ANOMALY":"290.4630","COUNTRY_CODE":"US","ARG_OF_PERICENTER":"69.6545","SITE":"AFETR","PERIOD":"95.592"},{"ELEMENT_SET_NO":"999","MEAN_MOTION":"15.06406370","PERIAPSIS":"545.995","TLE_LINE1":"1 47808U 21018X   22193.60907692  .00002026  00000-0  15482-3 0  9998","OBJECT_TYPE":"PAYLOAD","EPHEMERIS_TYPE":"0","EPOCH":"2022-07-12T14:37:04.245888","OBJECT_NAME":"STARLINK-2389","FILE":"3512432","MEAN_ELEMENT_THEORY":"SGP4","GP_ID":"207998419","REV_AT_EPOCH":"7534","DECAY_DATE":null,"APOAPSIS":"548.393","INCLINATION":"53.0540","CENTER_NAME":"EARTH","OBJECT_ID":"2021-018X","NORAD_CAT_ID":"47808","TIME_SYSTEM":"UTC","BSTAR":"0.00015482000000","RCS_SIZE":"LARGE","MEAN_MOTION_DDOT":"0.0000000000000","REF_FRAME":"TEME","MEAN_ANOMALY":"295.0382","COUNTRY_CODE":"US","SITE":"AFETR","ARG_OF_PERICENTER":"65.0787","PERIOD":"95.592","LAUNCH_DATE":"2021-03-11","TLE_LINE2":"2 47808  53.0540 124.5271 0001731  65.0787 295.0382 15.06406370 75343","CLASSIFICATION_TYPE":"U","SEMIMAJOR_AXIS":"6925.329","ECCENTRICITY":"0.00017310","MEAN_MOTION_DOT":"0.00002026","RA_OF_ASC_NODE":"124.5271"}];
